start=new Date('2022-11-28T00:00:00.000Z').valueOf();
sats=[{"FILE":"3671616","PERIOD":"95.592","SEMIMAJOR_AXIS":"6925.347","DECAY_DATE":null,"SITE":"AFETR","MEAN_MOTION_DDOT":"0.0000000000000","TLE_LINE1":"1 46786U 20074AZ  22331.31346526 -.00001051  00000-0 -51685-4 0  9993","NORAD_CAT_ID":"46786","RA_OF_ASC_NODE":"271.3506","COUNTRY_CODE":"US","GP_ID":"218955253","REV_AT_EPOCH":"11647","APOAPSIS":"548.272","MEAN_ELEMENT_THEORY":"SGP4","TIME_SYSTEM":"UTC","EPOCH":"2022-11-27T07:31:23.398464","CENTER_NAME":"EARTH","OBJECT_TYPE":"PAYLOAD","REF_FRAME":"TEME","OBJECT_NAME":"STARLINK-1893","ARG_OF_PERICENTER":"63.4716","RCS_SIZE":"LARGE","ELEMENT_SET_NO":"999","EPHEMERIS_TYPE":"0","CLASSIFICATION_TYPE":"U","OBJECT_ID":"2020-074AZ","MEAN_ANOMALY":"296.6430","PERIAPSIS":"546.152","MEAN_MOTION_DOT":"-0.00001051","TLE_LINE2":"2 46786  53.0542 271.3506 0001531  63.4716 296.6430 15.06400479116478","BSTAR":"-0.00005168500000","ECCENTRICITY":"0.00015310","MEAN_MOTION":"15.06400479","LAUNCH_DATE":"2020-10-24","INCLINATION":"53.0542"},{"OBJECT_TYPE":"PAYLOAD","CENTER_NAME":"EARTH","EPOCH":"2022-11-27T05:45:14.661792","TIME_SYSTEM":"UTC","MEAN_ELEMENT_THEORY":"SGP4","APOAPSIS":"548.291","REV_AT_EPOCH":"11646","COUNTRY_CODE":"US","GP_ID":"218955999","RA_OF_ASC_NODE":"271.6738","NORAD_CAT_ID":"46787","TLE_LINE1":"1 46787U 20074BA  22331.23975303 -.00001200  00000-0 -61653-4 0  9998","DECAY_DATE":null,"SITE":"AFETR","MEAN_MOTION_DDOT":"0.0000000000000","SEMIMAJOR_AXIS":"6925.364","FILE":"3671616","PERIOD":"95.592","INCLINATION":"53.0559","LAUNCH_DATE":"2020-10-24","MEAN_MOTION":"15.06394867","ECCENTRICITY":"0.00015330","BSTAR":"-0.00006165300000","TLE_LINE2":"2 46787  53.0559 271.6738 0001533  65.8345 294.2804 15.06394867116464","MEAN_MOTION_DOT":"-0.00001200","PERIAPSIS":"546.168","MEAN_ANOMALY":"294.2804","OBJECT_ID":"2020-074BA","CLASSIFICATION_TYPE":"U","EPHEMERIS_TYPE":"0","ELEMENT_SET_NO":"999","RCS_SIZE":"LARGE","ARG_OF_PERICENTER":"65.8345","OBJECT_NAME":"STARLINK-1899","REF_FRAME":"TEME"},{"ELEMENT_SET_NO":"999","OBJECT_ID":"2020-074BB","CLASSIFICATION_TYPE":"U","EPHEMERIS_TYPE":"0","MEAN_ANOMALY":"308.5224","REF_FRAME":"TEME","OBJECT_NAME":"STARLINK-1929","RCS_SIZE":"LARGE","ARG_OF_PERICENTER":"51.5964","MEAN_MOTION_DOT":"0.00003612","TLE_LINE2":"2 46788  53.0535 269.0189 0002214  51.5964 308.5224 15.06404947116237","BSTAR":"0.00026125000000","MEAN_MOTION":"15.06404947","ECCENTRICITY":"0.00022140","INCLINATION":"53.0535","LAUNCH_DATE":"2020-10-24","PERIAPSIS":"545.665","SEMIMAJOR_AXIS":"6925.333","DECAY_DATE":null,"SITE":"AFETR","MEAN_MOTION_DDOT":"0.0000000000000","TLE_LINE1":"1 46788U 20074BB  22331.82951031  .00003612  00000-0  26125-3 0  9997","NORAD_CAT_ID":"46788","FILE":"3671805","PERIOD":"95.592","APOAPSIS":"548.732","MEAN_ELEMENT_THEORY":"SGP4","REV_AT_EPOCH":"11623","EPOCH":"2022-11-27T19:54:29.690784","TIME_SYSTEM":"UTC","OBJECT_TYPE":"PAYLOAD","CENTER_NAME":"EARTH","RA_OF_ASC_NODE":"269.0189","COUNTRY_CODE":"US","GP_ID":"218965614"},{"DECAY_DATE":null,"MEAN_MOTION_DDOT":"0.0000000000000","SITE":"AFETR","SEMIMAJOR_AXIS":"6925.360","NORAD_CAT_ID":"46789","TLE_LINE1":"1 46789U 20074BC  22331.85256193 -.00000712  00000-0 -28921-4 0  9995","FILE":"3671806","PERIOD":"95.592","TIME_SYSTEM":"UTC","EPOCH":"2022-11-27T20:27:41.350752","REV_AT_EPOCH":"11581","APOAPSIS":"548.705","MEAN_ELEMENT_THEORY":"SGP4","CENTER_NAME":"EARTH","OBJECT_TYPE":"PAYLOAD","COUNTRY_CODE":"US","GP_ID":"218965629","RA_OF_ASC_NODE":"299.0927","EPHEMERIS_TYPE":"0","CLASSIFICATION_TYPE":"U","OBJECT_ID":"2020-074BC","ELEMENT_SET_NO":"999","MEAN_ANOMALY":"307.1866","OBJECT_NAME":"STARLINK-1930","REF_FRAME":"TEME","ARG_OF_PERICENTER":"52.9318","RCS_SIZE":"LARGE","BSTAR":"-0.00002892100000","MEAN_MOTION_DOT":"-0.00000712","TLE_LINE2":"2 46789  53.0558 299.0927 0002137  52.9318 307.1866 15.06396145115818","LAUNCH_DATE":"2020-10-24","INCLINATION":"53.0558","ECCENTRICITY":"0.00021370","MEAN_MOTION":"15.06396145","PERIAPSIS":"545.745"},{"RA_OF_ASC_NODE":"298.7853","GP_ID":"218965640","COUNTRY_CODE":"US","OBJECT_TYPE":"PAYLOAD","CENTER_NAME":"EARTH","MEAN_ELEMENT_THEORY":"SGP4","APOAPSIS":"548.410","REV_AT_EPOCH":"11581","TIME_SYSTEM":"UTC","EPOCH":"2022-11-27T21:10:07.170816","FILE":"3671807","PERIOD":"95.593","TLE_LINE1":"1 46790U 20074BD  22331.88202744 -.00000579  00000-0 -19951-4 0  9997","NORAD_CAT_ID":"46790","SEMIMAJOR_AXIS":"6925.372","SITE":"AFETR","DECAY_DATE":null,"MEAN_MOTION_DDOT":"0.0000000000000","PERIAPSIS":"546.063","MEAN_MOTION":"15.06392497","ECCENTRICITY":"0.00016940","INCLINATION":"53.0528","LAUNCH_DATE":"2020-10-24","MEAN_MOTION_DOT":"-0.00000579","TLE_LINE2":"2 46790  53.0528 298.7853 0001694  64.0240 296.0923 15.06392497115812","BSTAR":"-0.00001995100000","RCS_SIZE":"LARGE","ARG_OF_PERICENTER":"64.0240","REF_FRAME":"TEME","OBJECT_NAME":"STARLINK-1931","MEAN_ANOMALY":"296.0923","ELEMENT_SET_NO":"999","OBJECT_ID":"2020-074BD","CLASSIFICATION_TYPE":"U","EPHEMERIS_TYPE":"0"},{"OBJECT_TYPE":"PAYLOAD","CENTER_NAME":"EARTH","MEAN_ELEMENT_THEORY":"SGP4","APOAPSIS":"548.509","REV_AT_EPOCH":"11610","EPOCH":"2022-11-27T15:09:11.319264","TIME_SYSTEM":"UTC","RA_OF_ASC_NODE":"299.9203","GP_ID":"218988005","COUNTRY_CODE":"US","TLE_LINE1":"1 46791U 20074BE  22331.63138101  .00000201  00000-0  32377-4 0  9993","NORAD_CAT_ID":"46791","SEMIMAJOR_AXIS":"6925.364","DECAY_DATE":null,"SITE":"AFETR","MEAN_MOTION_DDOT":"0.0000000000000","PERIOD":"95.592","FILE":"3671921","MEAN_MOTION":"15.06394808","ECCENTRICITY":"0.00018480","INCLINATION":"53.0550","LAUNCH_DATE":"2020-10-24","TLE_LINE2":"2 46791  53.0550 299.9203 0001848  54.1904 305.9256 15.06394808116108","MEAN_MOTION_DOT":"0.00000201","BSTAR":"0.00003237700000","PERIAPSIS":"545.950","MEAN_ANOMALY":"305.9256","ELEMENT_SET_NO":"999","OBJECT_ID":"2020-074BE","EPHEMERIS_TYPE":"0","CLASSIFICATION_TYPE":"U","RCS_SIZE":"LARGE","ARG_OF_PERICENTER":"54.1904","REF_FRAME":"TEME","OBJECT_NAME":"STARLINK-1933"},{"OBJECT_TYPE":"PAYLOAD","CENTER_NAME":"EARTH","TIME_SYSTEM":"UTC","EPOCH":"2022-11-27T07:49:58.402560","MEAN_ELEMENT_THEORY":"SGP4","APOAPSIS":"548.402","REV_AT_EPOCH":"11619","GP_ID":"218954752","COUNTRY_CODE":"US","RA_OF_ASC_NODE":"291.2906","NORAD_CAT_ID":"46792","TLE_LINE1":"1 46792U 20074BF  22331.32637040 -.00000969  00000-0 -46189-4 0  9995","DECAY_DATE":null,"SITE":"AFETR","MEAN_MOTION_DDOT":"0.0000000000000","SEMIMAJOR_AXIS":"6925.355","FILE":"3671616","PERIOD":"95.592","INCLINATION":"53.0550","LAUNCH_DATE":"2020-10-24","MEAN_MOTION":"15.06397760","ECCENTRICITY":"0.00017060","BSTAR":"-0.00004618900000","TLE_LINE2":"2 46792  53.0550 291.2906 0001706  51.1883 308.9258 15.06397760116194","MEAN_MOTION_DOT":"-0.00000969","PERIAPSIS":"546.039","MEAN_ANOMALY":"308.9258","OBJECT_ID":"2020-074BF","EPHEMERIS_TYPE":"0","CLASSIFICATION_TYPE":"U","ELEMENT_SET_NO":"999","RCS_SIZE":"LARGE","ARG_OF_PERICENTER":"51.1883","OBJECT_NAME":"STARLINK-1934","REF_FRAME":"TEME"},{"MEAN_MOTION":"15.06389600","ECCENTRICITY":"0.00018130","INCLINATION":"53.0542","LAUNCH_DATE":"2020-10-24","TLE_LINE2":"2 46793  53.0542 299.9729 0001813  54.8693 305.2466 15.06389600116096","MEAN_MOTION_DOT":"0.00000284","BSTAR":"0.00003801300000","PERIAPSIS":"545.990","MEAN_ANOMALY":"305.2466","ELEMENT_SET_NO":"999","OBJECT_ID":"2020-074BG","EPHEMERIS_TYPE":"0","CLASSIFICATION_TYPE":"U","RCS_SIZE":"LARGE","ARG_OF_PERICENTER":"54.8693","REF_FRAME":"TEME","OBJECT_NAME":"STARLINK-1941","OBJECT_TYPE":"PAYLOAD","CENTER_NAME":"EARTH","APOAPSIS":"548.501","MEAN_ELEMENT_THEORY":"SGP4","REV_AT_EPOCH":"11609","EPOCH":"2022-11-27T14:53:16.355616","TIME_SYSTEM":"UTC","RA_OF_ASC_NODE":"299.9729","COUNTRY_CODE":"US","GP_ID":"218988506","TLE_LINE1":"1 46793U 20074BG  22331.62032819  .00000284  00000-0  38013-4 0  9997","NORAD_CAT_ID":"46793","SEMIMAJOR_AXIS":"6925.380","SITE":"AFETR","DECAY_DATE":null,"MEAN_MOTION_DDOT":"0.0000000000000","FILE":"3671921","PERIOD":"95.593"},{"REF_FRAME":"TEME","OBJECT_NAME":"STARLINK-1942","ARG_OF_PERICENTER":"50.0714","RCS_SIZE":"LARGE","ELEMENT_SET_NO":"999","CLASSIFICATION_TYPE":"U","EPHEMERIS_TYPE":"0","OBJECT_ID":"2020-074BH","MEAN_ANOMALY":"310.0454","PERIAPSIS":"545.815","MEAN_MOTION_DOT":"-0.00002064","TLE_LINE2":"2 46794  53.0537 301.1238 0002037  50.0714 310.0454 15.06395990116060","BSTAR":"-0.00011973000000","ECCENTRICITY":"0.00020370","MEAN_MOTION":"15.06395990","LAUNCH_DATE":"2020-10-24","INCLINATION":"53.0537","PERIOD":"95.592","FILE":"3671616","SEMIMAJOR_AXIS":"6925.361","SITE":"AFETR","DECAY_DATE":null,"MEAN_MOTION_DDOT":"0.0000000000000","TLE_LINE1":"1 46794U 20074BH  22331.36230557 -.00002064  00000-0 -11973-3 0  9993","NORAD_CAT_ID":"46794","RA_OF_ASC_NODE":"301.1238","COUNTRY_CODE":"US","GP_ID":"218955254","REV_AT_EPOCH":"11606","MEAN_ELEMENT_THEORY":"SGP4","APOAPSIS":"548.637","EPOCH":"2022-11-27T08:41:43.201248","TIME_SYSTEM":"UTC","CENTER_NAME":"EARTH","OBJECT_TYPE":"PAYLOAD"},{"FILE":"3671616","PERIOD":"95.592","NORAD_CAT_ID":"46796","TLE_LINE1":"1 46796U 20074BK  22331.27108644 -.00002641  00000-0 -15846-3 0  9990","SITE":"AFETR","DECAY_DATE":null,"MEAN_MOTION_DDOT":"0.0000000000000","SEMIMAJOR_AXIS":"6925.364","GP_ID":"218956000","COUNTRY_CODE":"US","RA_OF_ASC_NODE":"291.5391","CENTER_NAME":"EARTH","OBJECT_TYPE":"PAYLOAD","EPOCH":"2022-11-27T06:30:21.868416","TIME_SYSTEM":"UTC","REV_AT_EPOCH":"11618","MEAN_ELEMENT_THEORY":"SGP4","APOAPSIS":"548.369","ARG_OF_PERICENTER":"67.0447","RCS_SIZE":"LARGE","OBJECT_NAME":"STARLINK-1944","REF_FRAME":"TEME","MEAN_ANOMALY":"293.0716","EPHEMERIS_TYPE":"0","CLASSIFICATION_TYPE":"U","OBJECT_ID":"2020-074BK","ELEMENT_SET_NO":"999","PERIAPSIS":"546.088","LAUNCH_DATE":"2020-10-24","INCLINATION":"53.0543","ECCENTRICITY":"0.00016470","MEAN_MOTION":"15.06395084","BSTAR":"-0.00015846000000","MEAN_MOTION_DOT":"-0.00002641","TLE_LINE2":"2 46796  53.0543 291.5391 0001647  67.0447 293.0716 15.06395084116186"}];
